[{"OBJECT_NAME":"STARLINK-35006","OBJECT_ID":"2025-184M","EPOCH":"2026-03-09T16:56:58.822368","MEAN_MOTION":15.05641481,"ECCENTRICITY":0.00010949,"INCLINATION":97.6016,"RA_OF_ASC_NODE":122.6826,"ARG_OF_PERICENTER":105.9874,"MEAN_ANOMALY":254.1473,"EPHEMERIS_TYPE":0,"CLASSIFICATION_TYPE":"U","NORAD_CAT_ID":65284,"ELEMENT_SET_NO":999,"REV_AT_EPOCH":3130,"BSTAR":0.00013718764,"MEAN_MOTION_DOT":1.919e-5,"MEAN_MOTION_DDOT":0},{"OBJECT_NAME":"STUDSAT","OBJECT_ID":"2010-035B","EPOCH":"2026-03-09T18:37:00.077376","MEAN_MOTION":15.04045903,"ECCENTRICITY":0.00117838,"INCLINATION":98.1026,"RA_OF_ASC_NODE":330.9975,"ARG_OF_PERICENTER":15.8359,"MEAN_ANOMALY":344.3232,"EPHEMERIS_TYPE":0,"CLASSIFICATION_TYPE":"U","NORAD_CAT_ID":36796,"ELEMENT_SET_NO":999,"REV_AT_EPOCH":85020,"BSTAR":0.00039642444,"MEAN_MOTION_DOT":5.425e-5,"MEAN_MOTION_DDOT":0}]
